[{"OBJECT_NAME":"VSP RF C1","OBJECT_ID":"2024-043AQ","EPOCH":"2026-03-09T21:56:05.358624","MEAN_MOTION":15.29409663,"ECCENTRICITY":0.00093965,"INCLINATION":97.5441,"RA_OF_ASC_NODE":205.1792,"ARG_OF_PERICENTER":219.6172,"MEAN_ANOMALY":140.4382,"EPHEMERIS_TYPE":0,"CLASSIFICATION_TYPE":"U","NORAD_CAT_ID":59136,"ELEMENT_SET_NO":999,"REV_AT_EPOCH":11190,"BSTAR":0.00026222052,"MEAN_MOTION_DOT":7.409e-5,"MEAN_MOTION_DDOT":0},{"OBJECT_NAME":"STARLINK-32655","OBJECT_ID":"2024-229L","EPOCH":"2026-03-09T00:05:52.182816","MEAN_MOTION":15.27575873,"ECCENTRICITY":0.00015851,"INCLINATION":42.9989,"RA_OF_ASC_NODE":274.8291,"ARG_OF_PERICENTER":276.7643,"MEAN_ANOMALY":83.3028,"EPHEMERIS_TYPE":0,"CLASSIFICATION_TYPE":"U","NORAD_CAT_ID":62202,"ELEMENT_SET_NO":999,"REV_AT_EPOCH":7045,"BSTAR":0.00091419138,"MEAN_MOTION_DOT":0.00024977,"MEAN_MOTION_DDOT":0}]
